ONEWEB-0446             
1 51640U 22012U   25047.61336964  .00000454  00000+0  12648-2 0  9994
2 51640  87.8901 133.0627 0001869  97.8089 262.3250 13.10371137145735
ONEWEB-0448             
1 51641U 22012V   25047.61834709  .00000343  00000+0  94706-3 0  9998
2 51641  87.8902 133.0618 0001825 109.4521 250.6804 13.10370171145709
ONEWEB-0449             
1 51642U 22012W   25047.47060688  .00000072  00000+0  16998-3 0  9996
2 51642  87.8894 133.0726 0001571 107.7510 252.3788 13.10369703145694
ONEWEB-0451             
1 51643U 22012X   25047.59702222  .00000007  00000+0 -16414-4 0  9990
2 51643  87.9042 102.5851 0001677 100.3410 259.7910 13.17651068149716
ONEWEB-0452             
1 51644U 22012Y   25047.59534758  .00000031  00000+0  47852-4 0  9994
2 51644  87.9048 102.6403 0001660 107.8276 252.3037 13.17650292149729
ONEWEB-0456             
1 51646U 22012AA  25047.48055748 -.00000427  00000+0 -12591-2 0  9992
2 51646  87.8892 133.0341 0002039 106.9135 253.2216 13.10371335145738
ONEWEB-0457             
1 51647U 22012AB  25047.53369929  .00000618  00000+0  17347-2 0  9992
2 51647  87.8902 133.0675 0001448  99.9882 260.1409 13.10373784145746
ONEWEB-0458             
1 51648U 22012AC  25047.47889776 -.00000318  00000+0 -94752-3 0  9998
2 51648  87.8886 133.0779 0001804 110.7245 249.4076 13.10371167145691
